SAR-LUPE 2              
1 31797U 07030A   26166.92642146  .00006793  00000+0  12335-3 0  9993
2 31797  98.1048 271.2019 0005018 147.8353 212.3203 15.49961831 56748
SAPPHIRE                
1 39088U 13009C   26166.97670557  .00000091  00000+0  46767-4 0  9991
2 39088  98.4259 346.4612 0010045 250.6392 109.3708 14.35240300696405
PRAETORIAN SDA_602      
1 65565U 25203A   26166.93989377  .00000055  00000+0  38688-4 0  9991
2 65565  81.3031  11.9242 0005705 187.4554 172.6519 13.84342635 38523
PRAETORIAN SDA_603      
1 65566U 25203B   26166.96618784  .00000108  00000+0  86754-4 0  9992
2 65566  81.3038  11.8158 0009248 190.8378 169.2581 13.83905683 38533
PRAETORIAN SDA_604      
1 65567U 25203C   26166.91280354  .00000051  00000+0  36118-4 0  9992
2 65567  81.3053  12.2754 0005187 195.3046 164.7954 13.83047303 38505
PRAETORIAN SDA_605      
1 65568U 25203D   26166.95081569  .00000047  00000+0  32260-4 0  9993
2 65568  81.3019  11.9046 0008026 186.3577 173.7479 13.83434072 38529
PRAETORIAN SDA_606      
1 65569U 25203E   26166.93333854  .00000060  00000+0  43887-4 0  9991
2 65569  81.3055  12.1419 0005642 184.4785 175.6322 13.83407255 38518
PRAETORIAN SDA_607      
1 65570U 25203F   26166.94216673  .00000135  00000+0  11002-3 0  9999
2 65570  81.3038  11.7987 0008570 190.9946 169.1024 13.84284357 38536
PRAETORIAN SDA_608      
1 65571U 25203G   26166.91914434  .00000051  00000+0  35528-4 0  9994
2 65571  81.3007  11.9815 0005700 194.4667 165.6327 13.83816662 38510
PRAETORIAN SDA_609      
1 65572U 25203H   26166.92441251  .00000145  00000+0  11976-3 0  9992
2 65572  81.3050  11.9591 0006522 189.2533 170.8505 13.84212108 38520
PRAETORIAN SDA_610      
1 65573U 25203J   26166.97123321  .00000045  00000+0  29553-4 0  9993
2 65573  81.3007  11.8913 0006375 191.8435 168.2572 13.83851746 38527
PRAETORIAN SDA_611      
1 65574U 25203K   26166.97153761 -.00000064  00000+0 -69517-4 0  9992
2 65574  81.3010  12.0560 0005224 198.1030 161.9941 13.83309571 38519
PRAETORIAN SDA_612      
1 65575U 25203L   26166.89042944  .00000204  00000+0  16985-3 0  9998
2 65575  81.3029  11.7208 0008963 190.3351 169.7623 13.85038980 38538
PRAETORIAN SDA_613      
1 65576U 25203M   26166.97780566  .00000042  00000+0  27934-4 0  9994
2 65576  81.2999  12.0459 0005490 187.2682 172.8395 13.82764868 38517
PRAETORIAN SDA_614      
1 65577U 25203N   26166.95161355  .00000036  00000+0  20946-4 0  9991
2 65577  81.3014  11.7410 0006940 187.0786 173.0274 13.84777947 38540
PRAETORIAN SDA_615      
1 65578U 25203P   26166.92819624  .00000172  00000+0  14338-3 0  9996
2 65578  81.3024  11.7253 0008738 189.2389 170.8608 13.84436150 38530
PRAETORIAN SDA_616      
1 65579U 25203Q   26166.97071528  .00000121  00000+0  99540-4 0  9998
2 65579  81.3067  12.2011 0005157 195.9688 164.1306 13.83267994 38510
PRAETORIAN SDA_617      
1 65580U 25203R   26166.91987712  .00000020  00000+0  71020-5 0  9997
2 65580  81.3037  12.0791 0007182 187.7125 172.3922 13.83149857 38519
PRAETORIAN SDA_618      
1 65581U 25203S   26166.96671836  .00000076  00000+0  56767-4 0  9991
2 65581  81.3025  11.6203 0009510 191.1505 168.9443 13.84669801 38547
PRAETORIAN SDA_619      
1 65582U 25203T   26166.92959975  .00000204  00000+0  17370-3 0  9990
2 65582  81.3046  11.9497 0007959 189.4011 170.6998 13.83805782 39158
PRAETORIAN SDA_620      
1 65583U 25203U   26166.81279190  .00000124  00000+0  10128-3 0  9998
2 65583  81.3030  12.0785 0007458 184.6438 175.4650 13.83617956 38508
PRAETORIAN SDA_621      
1 65584U 25203V   26166.93136889  .00000049  00000+0  33648-4 0  9998
2 65584  81.3021  11.8872 0007283 182.1228 177.9899 13.83801060 38524
PRAETORIAN SDA_601      
1 65585U 25203W   26166.97376252 -.00000021  00000+0 -30063-4 0  9993
2 65585  81.3037  12.1433 0005141 199.4860 160.6101 13.83168042 38513
